H1 CPF 01  gfz 2021 09 27 00  7701 terrasarx 
H2 0702601  6201 31698    2021 09 27 00 59 42 2021 10 02 00 00 42   120 1 1  0 0 0
H9
10 0 59486  12942.000000  0     387619.102   1380005.470   6726921.394
10 0 59486  13062.000000  0    1134812.020   1876071.262   6519609.849
10 0 59486  13182.000000  0    1870484.697   2326421.254   6197716.915
10 0 59486  13302.000000  0    2580923.793   2723506.521   5766868.249
10 0 59486  13422.000000  0    3252724.161   3060937.778   5234602.703
10 0 59486  13542.000000  0    3873045.290   3333591.334   4610246.002
10 0 59486  13662.000000  0    4429859.364   3537689.238   3904751.961
10 0 59486  13782.000000  0    4912191.317   3670853.593   3130516.714
10 0 59486  13902.000000  0    5310343.396   3732132.943   2301159.653
10 0 59486  14022.000000  0    5616095.372   3721997.612   1431281.756
10 0 59486  14142.000000  0    5822878.946   3642306.958    536203.420
10 0 59486  14262.000000  0    5925920.247   3496247.199   -368313.543
10 0 59486  14382.000000  0    5922346.191   3288241.571  -1266352.246
10 0 59486  14502.000000  0    5811252.743   3023835.432  -2142129.332
10 0 59486  14622.000000  0    5593732.714   2709559.936  -2980279.036
10 0 59486  14742.000000  0    5272864.311   2352777.797  -3766127.212
10 0 59486  14862.000000  0    4853661.245   1961514.573  -4485950.224
10 0 59486  14982.000000  0    4342983.232   1544279.688  -5127213.051
10 0 59486  15102.000000  0    3749413.052   1109882.965  -5678780.004
10 0 59486  15222.000000  0    3083103.740    667251.180  -6131099.146
10 0 59486  15342.000000  0    2355597.647    225247.428  -6476356.979
10 0 59486  15462.000000  0    1579623.104   -207502.286  -6708601.357
10 0 59486  15582.000000  0     768872.869   -622773.109  -6823834.701
10 0 59486  15702.000000  0     -62235.648  -1012893.802  -6820075.691
10 0 59486  15822.000000  0    -898811.159  -1370884.092  -6697387.931
10 0 59486  15942.000000  0   -1725748.422  -1690576.148  -6457879.775
10 0 59486  16062.000000  0   -2527995.217  -1966719.165  -6105672.058
10 0 59486  16182.000000  0   -3290820.183  -2195064.441  -5646834.085
10 0 59486  16302.000000  0   -4000080.184  -2372431.459  -5089290.944
10 0 59486  16422.000000  0   -4642484.568  -2496753.152  -4442698.391
10 0 59486  16542.000000  0   -5205848.411  -2567098.646  -3718286.236
10 0 59486  16662.000000  0   -5679331.082  -2583673.317  -2928672.605
10 0 59486  16782.000000  0   -6053654.586  -2547795.132  -2087649.916
10 0 59486  16902.000000  0   -6321295.503  -2461847.849  -1209946.347
10 0 59486  17022.000000  0   -6476646.023  -2329211.600   -310966.396
10 0 59486  17142.000000  0   -6516138.702  -2154172.089    593484.366
10 0 59486  17262.000000  0   -6438331.956  -1941810.318   1487484.844
10 0 59486  17382.000000  0   -6243952.259  -1697875.681   2355288.420
10 0 59486  17502.000000  0   -5935891.353  -1428645.918   3181609.143
10 0 59486  17622.000000  0   -5519161.196  -1140777.155   3951898.506
10 0 59486  17742.000000  0   -5000804.518   -841147.804   4652608.025
10 0 59486  17862.000000  0   -4389765.493   -536701.034   5271427.734
10 0 59486  17982.000000  0   -3696727.332   -234289.833   5797500.859
10 0 59486  18102.000000  0   -2933916.657     59472.979   6221611.712
10 0 59486  18222.000000  0   -2114879.555    338355.679   6536341.618
10 0 59486  18342.000000  0   -1254235.343    596635.651   6736192.505
10 0 59486  18462.000000  0    -367412.560    829214.267   6817676.981
10 0 59486  18582.000000  0     529627.890   1031715.877   6779374.625
10 0 59486  18702.000000  0    1420678.910   1200569.519   6621955.116
10 0 59486  18822.000000  0    2289579.056   1333072.289   6348167.237
10 0 59486  18942.000000  0    3120504.939   1427432.612   5962794.172
10 0 59486  19062.000000  0    3898261.415   1482793.280   5472575.380
10 0 59486  19182.000000  0    4608562.302   1499233.679   4886093.736
10 0 59486  19302.000000  0    5238297.914   1477752.064   4213632.938
10 0 59486  19422.000000  0    5775787.432   1420227.317   3467002.217
10 0 59486  19542.000000  0    6211004.789   1329361.218   2659328.920
10 0 59486  19662.000000  0    6535774.624   1208600.860   1804827.649
10 0 59486  19782.000000  0    6743935.150   1062045.157    918546.064
10 0 59486  19902.000000  0    6831460.999    894336.364     16093.236
10 0 59486  20022.000000  0    6796544.821    710539.531   -886643.600
10 0 59486  20142.000000  0    6639632.488    516012.874  -1773788.533
10 0 59486  20262.000000  0    6363412.678    316272.195  -2629763.547
10 0 59486  20382.000000  0    5972762.790    116853.460  -3439567.773
10 0 59486  20502.000000  0    5474651.985    -76822.977  -4189043.654
10 0 59486  20622.000000  0    4878003.351   -259583.139  -4865124.103
10 0 59486  20742.000000  0    4193520.826   -426621.681  -5456054.456
10 0 59486  20862.000000  0    3433487.396   -573613.455  -5951588.658
10 0 59486  20982.000000  0    2611536.863   -696812.839  -6343157.669
10 0 59486  21102.000000  0    1742404.022   -793137.453  -6624005.843
10 0 59486  21222.000000  0     841660.838   -860236.080  -6789296.111
10 0 59486  21342.000000  0     -74559.613   -896539.785  -6836185.341
10 0 59486  21462.000000  0    -989846.675   -901294.395  -6763867.005
10 0 59486  21582.000000  0   -1887798.805   -874575.347  -6573583.993
10 0 59486  21702.000000  0   -2752311.340   -817283.700  -6268609.020
10 0 59486  21822.000000  0   -3567858.319   -731124.079  -5854193.453
10 0 59486  21942.000000  0   -4319768.072   -618564.755  -5337488.058
10 0 59486  22062.000000  0   -4994488.965   -482779.864  -4727430.558
10 0 59486  22182.000000  0   -5579837.859   -327575.287  -4034602.542
10 0 59486  22302.000000  0   -6065229.423   -157299.213  -3271056.922
10 0 59486  22422.000000  0   -6441879.192     23261.969  -2450115.264
10 0 59486  22542.000000  0   -6702975.742    208999.199  -1586139.947
10 0 59486  22662.000000  0   -6843817.791    394606.552   -694282.923
10 0 59486  22782.000000  0   -6861910.028    574712.616    209785.682
10 0 59486  22902.000000  0   -6757013.478    744015.289   1110159.378
10 0 59486  23022.000000  0   -6531153.054    897416.086   1990982.667
10 0 59486  23142.000000  0   -6188579.383   1030150.494   2836739.787
10 0 59486  23262.000000  0   -5735684.690   1137911.012   3632536.979
10 0 59486  23382.000000  0   -5180875.358   1216959.473   4364371.032
10 0 59486  23502.000000  0   -4534406.151   1264226.140   5019378.401
10 0 59486  23622.000000  0   -3808180.737   1277392.839   5586060.738
10 0 59486  23742.000000  0   -3015523.962   1254958.914   6054484.097
10 0 59486  23862.000000  0   -2170929.746   1196288.342   6416449.567
10 0 59486  23982.000000  0   -1289788.869   1101637.786   6665631.279
10 0 59486  24102.000000  0    -388104.544    972164.037   6797679.452
10 0 59486  24222.000000  0     517798.426    809911.528   6810290.770
10 0 59486  24342.000000  0    1411568.085    617779.908   6703245.778
10 0 59486  24462.000000  0    2277119.117    399472.641   6478412.526
10 0 59486  24582.000000  0    3098921.497    159426.866   6139716.898
10 0 59486  24702.000000  0    3862280.934    -97274.670   5693078.983
10 0 59486  24822.000000  0    4553604.841   -365008.107   5146314.904
10 0 59486  24942.000000  0    5160649.873   -637727.248   4509006.207
10 0 59486  25062.000000  0    5672746.564   -909094.882   3792337.138
10 0 59486  25182.000000  0    6080996.763  -1172624.067   3008902.052
10 0 59486  25302.000000  0    6378438.231  -1421825.995   2172483.954
10 0 59486  25422.000000  0    6560172.216  -1650360.311   1297809.164
10 0 59486  25542.000000  0    6623450.592  -1852185.305    400283.090
10 0 59486  25662.000000  0    6567720.819  -2021704.896   -504289.123
10 0 59486  25782.000000  0    6394624.973  -2153905.924  -1399990.396
10 0 59486  25902.000000  0    6107955.165  -2244484.295  -2271080.487
10 0 59486  26022.000000  0    5713565.094  -2289955.818  -3102279.868
10 0 59486  26142.000000  0    5219241.673  -2287749.093  -3879041.363
10 0 59486  26262.000000  0    4634541.671  -2236278.903  -4587805.047
10 0 59486  26382.000000  0    3970596.657  -2134998.706  -5216232.594
10 0 59486  26502.000000  0    3239890.453  -1984431.095  -5753415.391
10 0 59486  26622.000000  0    2456017.349  -1786175.739  -6190053.150
10 0 59486  26742.000000  0    1633426.788  -1542895.367  -6518604.728
10 0 59486  26862.000000  0     787155.552  -1258279.831  -6733408.116
10 0 59486  26982.000000  0     -67444.587   -936990.035  -6830767.395
10 0 59486  27102.000000  0    -914980.100   -584582.259  -6809008.965
10 0 59486  27222.000000  0   -1740286.329   -207414.191  -6668507.330
10 0 59486  27342.000000  0   -2528692.928    187467.230  -6411678.642
10 0 59486  27462.000000  0   -3266278.392    592453.328  -6042943.024
10 0 59486  27582.000000  0   -3940112.191    999515.748  -5568657.602
10 0 59486  27702.000000  0   -4538482.441   1400360.614  -4997017.735
10 0 59486  27822.000000  0   -5051103.792   1786593.475  -4337927.829
10 0 59486  27942.000000  0   -5469302.169   2149892.539  -3602839.978
10 0 59486  28062.000000  0   -5786170.713   2482184.452  -2804563.546
10 0 59486  28182.000000  0   -5996695.263   2775820.399  -1957048.023
10 0 59486  28302.000000  0   -6097844.774   3023748.377  -1075141.175
10 0 59486  28422.000000  0   -6088623.520   3219677.479   -174326.799
10 0 59486  28542.000000  0   -5970083.142   3358229.077    729553.193
10 0 59486  28662.000000  0   -5745292.131   3435070.496   1620586.283
10 0 59486  28782.000000  0   -5419263.990   3447028.491   2483078.438
10 0 59486  28902.000000  0   -4998846.499   3392178.847   3301838.814
10 0 59486  29022.000000  0   -4492575.295   3269910.010   4062454.640
10 0 59486  29142.000000  0   -3910494.437   3080958.728   4751549.653
10 0 59486  29262.000000  0   -3263950.595   2827417.759   5357019.949
10 0 59486  29382.000000  0   -2565365.156   2512716.730   5868246.014
99
